[{"OBJECT_NAME":"SITRO-AIS 8 (ANOKHIN)","OBJECT_ID":"2023-091AD","EPOCH":"2026-03-09T23:44:40.058592","MEAN_MOTION":15.29359179,"ECCENTRICITY":0.0012509,"INCLINATION":97.5169,"RA_OF_ASC_NODE":133.2823,"ARG_OF_PERICENTER":92.0171,"MEAN_ANOMALY":268.2501,"EPHEMERIS_TYPE":0,"CLASSIFICATION_TYPE":"U","NORAD_CAT_ID":57193,"ELEMENT_SET_NO":999,"REV_AT_EPOCH":14927,"BSTAR":0.00064982524,"MEAN_MOTION_DOT":0.00018494,"MEAN_MOTION_DDOT":0},{"OBJECT_NAME":"STARLINK-35562","OBJECT_ID":"2025-235F","EPOCH":"2026-03-09T19:17:49.960608","MEAN_MOTION":15.3018588,"ECCENTRICITY":0.00011018,"INCLINATION":53.1595,"RA_OF_ASC_NODE":245.1175,"ARG_OF_PERICENTER":87.9056,"MEAN_ANOMALY":272.2071,"EPHEMERIS_TYPE":0,"CLASSIFICATION_TYPE":"U","NORAD_CAT_ID":66063,"ELEMENT_SET_NO":999,"REV_AT_EPOCH":2293,"BSTAR":0.00093159789,"MEAN_MOTION_DOT":0.00027321,"MEAN_MOTION_DDOT":0}]
